{"fetched_at":"2026-03-30T06:02:59Z","count":15439,"tles":[{"name":"STARLINK-11243 [DTC]","line1":"1 60927U 24155D   26087.74637142 -.00000355  00000+0  19270-5 0  9995","line2":"2 60927  53.1597 247.4451 0000726  96.0228 264.0873 15.69704898 91394","category":"Starlink"}]}