{
  "norad_id": 60927,
  "name": "STARLINK-11243 [DTC]",
  "history": [
    {
      "epoch": "2026-03-28T17:54:46.490688",
      "apogee_km": 360.23112680767736,
      "perigee_km": 359.25157405309164,
      "latitude_deg": -53.11953294381804,
      "longitude_deg": -15.648343679960817,
      "semi_major_axis_km": 6737.878350430384,
      "eccentricity": 7.269e-05,
      "inclination_deg": 53.1597,
      "raan_deg": 247.4451,
      "arg_perigee_deg": 96.0228,
      "mean_anomaly_deg": 264.0873,
      "mean_motion_rev_day": 15.69704898
    }
  ]
}